CCSDS_OMM_VERS = 2.0
CREATION_DATE  = 
ORIGINATOR     = 

OBJECT_NAME    = STARLINK-35902
OBJECT_ID      = 2025-271K
CENTER_NAME    = EARTH
REF_FRAME      = TEME
TIME_SYSTEM    = UTC
MEAN_ELEMENT_THEORY = SGP/SGP4

EPOCH          = 2025-12-27T15:02:12.712128
MEAN_MOTION    = 15.39637231
ECCENTRICITY   = .0001138
INCLINATION    = 53.1595
RA_OF_ASC_NODE = 116.7833
ARG_OF_PERICENTER = 64.5067
MEAN_ANOMALY   = 295.6055

EPHEMERIS_TYPE = 0
CLASSIFICATION_TYPE = U
NORAD_CAT_ID   = 66626
ELEMENT_SET_NO = 999
REV_AT_EPOCH   = 650
BSTAR          = .55493E-3
MEAN_MOTION_DOT = .21873E-3
MEAN_MOTION_DDOT = 0

CCSDS_OMM_VERS = 2.0
CREATION_DATE  = 
ORIGINATOR     = 

OBJECT_NAME    = STARLINK-35904
OBJECT_ID      = 2025-271L
CENTER_NAME    = EARTH
REF_FRAME      = TEME
TIME_SYSTEM    = UTC
MEAN_ELEMENT_THEORY = SGP/SGP4

EPOCH          = 2025-12-27T14:48:50.486400
MEAN_MOTION    = 15.39603741
ECCENTRICITY   = .0001174
INCLINATION    = 53.1591
RA_OF_ASC_NODE = 116.7262
ARG_OF_PERICENTER = 72.3473
MEAN_ANOMALY   = 287.7660

EPHEMERIS_TYPE = 0
CLASSIFICATION_TYPE = U
NORAD_CAT_ID   = 66627
ELEMENT_SET_NO = 999
REV_AT_EPOCH   = 646
BSTAR          = .13043E-2
MEAN_MOTION_DOT = .52101E-3
MEAN_MOTION_DDOT = 0

CCSDS_OMM_VERS = 2.0
CREATION_DATE  = 
ORIGINATOR     = 

OBJECT_NAME    = STARLINK-35862
OBJECT_ID      = 2025-271M
CENTER_NAME    = EARTH
REF_FRAME      = TEME
TIME_SYSTEM    = UTC
MEAN_ELEMENT_THEORY = SGP/SGP4

EPOCH          = 2025-12-27T12:41:27.144096
MEAN_MOTION    = 15.39635416
ECCENTRICITY   = .0001685
INCLINATION    = 53.1615
RA_OF_ASC_NODE = 116.8823
ARG_OF_PERICENTER = 336.9212
MEAN_ANOMALY   = 23.1717

EPHEMERIS_TYPE = 0
CLASSIFICATION_TYPE = U
NORAD_CAT_ID   = 66628
ELEMENT_SET_NO = 999
REV_AT_EPOCH   = 649
BSTAR          = .10993E-2
MEAN_MOTION_DOT = .43848E-3
MEAN_MOTION_DDOT = 0

CCSDS_OMM_VERS = 2.0
CREATION_DATE  = 
ORIGINATOR     = 

OBJECT_NAME    = STARLINK-35956
OBJECT_ID      = 2025-271N
CENTER_NAME    = EARTH
REF_FRAME      = TEME
TIME_SYSTEM    = UTC
MEAN_ELEMENT_THEORY = SGP/SGP4

EPOCH          = 2025-12-27T18:51:35.668800
MEAN_MOTION    = 15.58065094
ECCENTRICITY   = .0010633
INCLINATION    = 53.1714
RA_OF_ASC_NODE = 114.9480
ARG_OF_PERICENTER = 27.7105
MEAN_ANOMALY   = 332.4472

EPHEMERIS_TYPE = 0
CLASSIFICATION_TYPE = U
NORAD_CAT_ID   = 66629
ELEMENT_SET_NO = 999
REV_AT_EPOCH   = 140
BSTAR          = .77121E-2
MEAN_MOTION_DOT = .639515E-2
MEAN_MOTION_DDOT = 0

CCSDS_OMM_VERS = 2.0
CREATION_DATE  = 
ORIGINATOR     = 

OBJECT_NAME    = STARLINK-35949
OBJECT_ID      = 2025-271P
CENTER_NAME    = EARTH
REF_FRAME      = TEME
TIME_SYSTEM    = UTC
MEAN_ELEMENT_THEORY = SGP/SGP4

EPOCH          = 2025-12-27T20:00:03.000384
MEAN_MOTION    = 15.39572404
ECCENTRICITY   = .0000867
INCLINATION    = 53.1599
RA_OF_ASC_NODE = 115.3994
ARG_OF_PERICENTER = 55.6122
MEAN_ANOMALY   = 217.5563

EPHEMERIS_TYPE = 0
CLASSIFICATION_TYPE = U
NORAD_CAT_ID   = 66630
ELEMENT_SET_NO = 999
REV_AT_EPOCH   = 606
BSTAR          = .16648E-2
MEAN_MOTION_DOT = .6667E-3
MEAN_MOTION_DDOT = 0

CCSDS_OMM_VERS = 2.0
CREATION_DATE  = 
ORIGINATOR     = 

OBJECT_NAME    = STARLINK-35965
OBJECT_ID      = 2025-271Q
CENTER_NAME    = EARTH
REF_FRAME      = TEME
TIME_SYSTEM    = UTC
MEAN_ELEMENT_THEORY = SGP/SGP4

EPOCH          = 2025-12-27T20:00:03.000384
MEAN_MOTION    = 15.39571766
ECCENTRICITY   = .0000984
INCLINATION    = 53.1599
RA_OF_ASC_NODE = 115.3963
ARG_OF_PERICENTER = 74.4496
MEAN_ANOMALY   = 200.5553

EPHEMERIS_TYPE = 0
CLASSIFICATION_TYPE = U
NORAD_CAT_ID   = 66631
ELEMENT_SET_NO = 999
REV_AT_EPOCH   = 606
BSTAR          = .16549E-2
MEAN_MOTION_DOT = .66265E-3
MEAN_MOTION_DDOT = 0

CCSDS_OMM_VERS = 2.0
CREATION_DATE  = 
ORIGINATOR     = 

OBJECT_NAME    = STARLINK-35973
OBJECT_ID      = 2025-271R
CENTER_NAME    = EARTH
REF_FRAME      = TEME
TIME_SYSTEM    = UTC
MEAN_ELEMENT_THEORY = SGP/SGP4

EPOCH          = 2025-12-27T16:49:03.844416
MEAN_MOTION    = 15.39632132
ECCENTRICITY   = .0001001
INCLINATION    = 53.1595
RA_OF_ASC_NODE = 116.5353
ARG_OF_PERICENTER = 87.7412
MEAN_ANOMALY   = 272.3707

EPHEMERIS_TYPE = 0
CLASSIFICATION_TYPE = U
NORAD_CAT_ID   = 66632
ELEMENT_SET_NO = 999
REV_AT_EPOCH   = 647
BSTAR          = .9802E-3
MEAN_MOTION_DOT = .39024E-3
MEAN_MOTION_DDOT = 0

CCSDS_OMM_VERS = 2.0
CREATION_DATE  = 
ORIGINATOR     = 

OBJECT_NAME    = STARLINK-35948
OBJECT_ID      = 2025-271S
CENTER_NAME    = EARTH
REF_FRAME      = TEME
TIME_SYSTEM    = UTC
MEAN_ELEMENT_THEORY = SGP/SGP4

EPOCH          = 2025-12-27T16:48:35.377344
MEAN_MOTION    = 15.39617176
ECCENTRICITY   = .0001119
INCLINATION    = 53.1607
RA_OF_ASC_NODE = 116.5359
ARG_OF_PERICENTER = 80.3290
MEAN_ANOMALY   = 279.7841

EPHEMERIS_TYPE = 0
CLASSIFICATION_TYPE = U
NORAD_CAT_ID   = 66633
ELEMENT_SET_NO = 999
REV_AT_EPOCH   = 651
BSTAR          = .95653E-3
MEAN_MOTION_DOT = .38048E-3
MEAN_MOTION_DDOT = 0

CCSDS_OMM_VERS = 2.0
CREATION_DATE  = 
ORIGINATOR     = 

OBJECT_NAME    = STARLINK-35967
OBJECT_ID      = 2025-271T
CENTER_NAME    = EARTH
REF_FRAME      = TEME
TIME_SYSTEM    = UTC
MEAN_ELEMENT_THEORY = SGP/SGP4

EPOCH          = 2025-12-27T15:08:25.846080
MEAN_MOTION    = 15.39570937
ECCENTRICITY   = .0001243
INCLINATION    = 53.1598
RA_OF_ASC_NODE = 116.8079
ARG_OF_PERICENTER = 103.5599
MEAN_ANOMALY   = 256.5544

EPHEMERIS_TYPE = 0
CLASSIFICATION_TYPE = U
NORAD_CAT_ID   = 66634
ELEMENT_SET_NO = 999
REV_AT_EPOCH   = 646
BSTAR          = .40374E-3
MEAN_MOTION_DOT = .15757E-3
MEAN_MOTION_DDOT = 0

CCSDS_OMM_VERS = 2.0
CREATION_DATE  = 
ORIGINATOR     = 

OBJECT_NAME    = STARLINK-35955
OBJECT_ID      = 2025-271U
CENTER_NAME    = EARTH
REF_FRAME      = TEME
TIME_SYSTEM    = UTC
MEAN_ELEMENT_THEORY = SGP/SGP4

EPOCH          = 2025-12-27T11:48:05.656032
MEAN_MOTION    = 15.39657722
ECCENTRICITY   = .0001033
INCLINATION    = 53.1601
RA_OF_ASC_NODE = 117.3625
ARG_OF_PERICENTER = 116.6157
MEAN_ANOMALY   = 243.4954

EPHEMERIS_TYPE = 0
CLASSIFICATION_TYPE = U
NORAD_CAT_ID   = 66635
ELEMENT_SET_NO = 999
REV_AT_EPOCH   = 648
BSTAR          = .1034E-2
MEAN_MOTION_DOT = .41235E-3
MEAN_MOTION_DDOT = 0

CCSDS_OMM_VERS = 2.0
CREATION_DATE  = 
ORIGINATOR     = 

OBJECT_NAME    = STARLINK-35968
OBJECT_ID      = 2025-271V
CENTER_NAME    = EARTH
REF_FRAME      = TEME
TIME_SYSTEM    = UTC
MEAN_ELEMENT_THEORY = SGP/SGP4

EPOCH          = 2025-12-27T18:08:41.335008
MEAN_MOTION    = 15.39638959
ECCENTRICITY   = .000088
INCLINATION    = 53.1596
RA_OF_ASC_NODE = 116.1668
ARG_OF_PERICENTER = 62.5173
MEAN_ANOMALY   = 297.5921

EPHEMERIS_TYPE = 0
CLASSIFICATION_TYPE = U
NORAD_CAT_ID   = 66636
ELEMENT_SET_NO = 999
REV_AT_EPOCH   = 652
BSTAR          = .83577E-3
MEAN_MOTION_DOT = .33197E-3
MEAN_MOTION_DDOT = 0

CCSDS_OMM_VERS = 2.0
CREATION_DATE  = 
ORIGINATOR     = 

OBJECT_NAME    = STARLINK-35953
OBJECT_ID      = 2025-271W
CENTER_NAME    = EARTH
REF_FRAME      = TEME
TIME_SYSTEM    = UTC
MEAN_ELEMENT_THEORY = SGP/SGP4

EPOCH          = 2025-12-27T14:48:21.932064
MEAN_MOTION    = 15.39673195
ECCENTRICITY   = .0001257
INCLINATION    = 53.1592
RA_OF_ASC_NODE = 116.7196
ARG_OF_PERICENTER = 86.2257
MEAN_ANOMALY   = 273.8892

EPHEMERIS_TYPE = 0
CLASSIFICATION_TYPE = U
NORAD_CAT_ID   = 66637
ELEMENT_SET_NO = 999
REV_AT_EPOCH   = 650
BSTAR          = .23E-2
MEAN_MOTION_DOT = .9289E-3
MEAN_MOTION_DDOT = 0

