STARLINK-35902          
1 66626U 25271K   25361.62653602  .00021873  00000+0  55493-3 0  9999
2 66626  53.1595 116.7833 0001138  64.5067 295.6055 15.39637231  6509
STARLINK-35904          
1 66627U 25271L   25361.61725100  .00052101  00000+0  13043-2 0  9994
2 66627  53.1591 116.7262 0001174  72.3473 287.7660 15.39603741  6468
STARLINK-35862          
1 66628U 25271M   25361.52878639  .00043848  00000+0  10993-2 0  9990
2 66628  53.1615 116.8823 0001685 336.9212  23.1717 15.39635416  6499
STARLINK-35956          
1 66629U 25271N   25361.78582950  .00639515  00000+0  77121-2 0  9995
2 66629  53.1714 114.9480 0010633  27.7105 332.4472 15.58065094  1407
STARLINK-35949          
1 66630U 25271P   25361.83336806  .00066670  00000+0  16648-2 0  9993
2 66630  53.1599 115.3994 0000867  55.6122 217.5563 15.39572404  6060
STARLINK-35965          
1 66631U 25271Q   25361.83336806  .00066265  00000+0  16549-2 0  9994
2 66631  53.1599 115.3963 0000984  74.4496 200.5553 15.39571766  6061
STARLINK-35973          
1 66632U 25271R   25361.70073894  .00039024  00000+0  98020-3 0  9994
2 66632  53.1595 116.5353 0001001  87.7412 272.3707 15.39632132  6478
STARLINK-35948          
1 66633U 25271S   25361.70040946  .00038048  00000+0  95653-3 0  9991
2 66633  53.1607 116.5359 0001119  80.3290 279.7841 15.39617176  6518
STARLINK-35967          
1 66634U 25271T   25361.63085470  .00015757  00000+0  40374-3 0  9997
2 66634  53.1598 116.8079 0001243 103.5599 256.5544 15.39570937  6468
STARLINK-35955          
1 66635U 25271U   25361.49173213  .00041235  00000+0  10340-2 0  9994
2 66635  53.1601 117.3625 0001033 116.6157 243.4954 15.39657722  6489
STARLINK-35968          
1 66636U 25271V   25361.75603397  .00033197  00000+0  83577-3 0  9996
2 66636  53.1596 116.1668 0000880  62.5173 297.5921 15.39638959  6523
STARLINK-35953          
1 66637U 25271W   25361.61692051  .00092890  00000+0  23000-2 0  9996
2 66637  53.1592 116.7196 0001257  86.2257 273.8892 15.39673195  6500
